{
"type": "FeatureCollection",
"name": "rute_bus",
"crs": { "type": "name", "properties": { "name": "urn:ogc:def:crs:OGC:1.3:CRS84" } },
"features": [
{ "type": "Feature", "properties": { "Name": "(1A) - Teman Bus", "descriptio": "Halte Bandara Adisutjipto > TPB Makam Sorogenen > TPB KR 2 > TPB Pasar Kalasan 1 > TPB Rs. Bhayangkara > TanpaPlang Kantor Cagar Budaya > TPB Terminal Prambanan > TPB Edotel Kalasan > TPB Pasar Kalasan 2 > TPB KR 1 > Halte Bandara Adisutjipto > TPB Hyund" }, "geometry": { "type": "MultiLineString", "coordinates": [ [ [ 110.489812, -7.755647 ], [ 110.489775, -7.755465 ], [ 110.481227, -7.757003 ], [ 110.480435, -7.757299 ], [ 110.479758, -7.75781 ], [ 110.474339, -7.763909 ], [ 110.468064, -7.771204 ], [ 110.466665, -7.772805 ], [ 110.466347, -7.77308 ], [ 110.466028, -7.773282 ], [ 110.464345, -7.774129 ], [ 110.447247, -7.783463 ], [ 110.447072, -7.783526 ], [ 110.446901, -7.783552 ], [ 110.438199, -7.783554 ], [ 110.438089, -7.783644 ], [ 110.437956, -7.784769 ], [ 110.43741, -7.78472 ], [ 110.437117, -7.784652 ], [ 110.435771, -7.784536 ], [ 110.435609, -7.784539 ], [ 110.435498, -7.784602 ], [ 110.435329, -7.784613 ], [ 110.435285, -7.784421 ], [ 110.43534, -7.784294 ], [ 110.435627, -7.784142 ], [ 110.43642, -7.7842 ], [ 110.436517, -7.784116 ], [ 110.436549, -7.783859 ], [ 110.436435, -7.783772 ], [ 110.436012, -7.783761 ], [ 110.435819, -7.783638 ], [ 110.429993, -7.783578 ], [ 110.429946, -7.783561 ], [ 110.429464, -7.78356 ], [ 110.425924, -7.783475 ], [ 110.419087, -7.783418 ], [ 110.414122, -7.783385 ], [ 110.411122, -7.783364 ], [ 110.410934, -7.783395 ], [ 110.410738, -7.783449 ], [ 110.410607, -7.783596 ], [ 110.410575, -7.783769 ], [ 110.410583, -7.783791 ], [ 110.41058, -7.783965 ], [ 110.410454, -7.786528 ], [ 110.410226, -7.786525 ], [ 110.410353, -7.783597 ], [ 110.410312, -7.783499 ], [ 110.41022, -7.783412 ], [ 110.410073, -7.783372 ], [ 110.396667, -7.783264 ], [ 110.395336, -7.783247 ], [ 110.394925, -7.78323 ], [ 110.388153, -7.78314 ], [ 110.379455, -7.783072 ], [ 110.379298, -7.783061 ], [ 110.375133, -7.783024 ], [ 110.374823, -7.783008 ], [ 110.372565, -7.78299 ], [ 110.372131, -7.783027 ], [ 110.371319, -7.78303 ], [ 110.367361, -7.782961 ], [ 110.367215, -7.783038 ], [ 110.367063, -7.783228 ], [ 110.366334, -7.789132 ], [ 110.366393, -7.789265 ], [ 110.366356, -7.789516 ], [ 110.366378, -7.78954 ], [ 110.366429, -7.789566 ], [ 110.36756, -7.789668 ], [ 110.368276, -7.789685 ], [ 110.368411, -7.789721 ], [ 110.368483, -7.789834 ], [ 110.368447, -7.790002 ], [ 110.368362, -7.790204 ], [ 110.3683, -7.790312 ], [ 110.368181, -7.790363 ], [ 110.367984, -7.79032 ], [ 110.367745, -7.790224 ], [ 110.367471, -7.790211 ], [ 110.367427, -7.79023 ], [ 110.366228, -7.790167 ], [ 110.366207, -7.790217 ], [ 110.365469, -7.796379 ], [ 110.364849, -7.801144 ], [ 110.364856, -7.801268 ], [ 110.364922, -7.801359 ], [ 110.369063, -7.801489 ], [ 110.369471, -7.80149 ], [ 110.373051, -7.801553 ], [ 110.373252, -7.801563 ], [ 110.378557, -7.801712 ], [ 110.384295, -7.80186 ], [ 110.389185, -7.801998 ], [ 110.389198, -7.801988 ], [ 110.392024, -7.802052 ], [ 110.395129, -7.802118 ], [ 110.395152, -7.802127 ], [ 110.39679, -7.802164 ], [ 110.396954, -7.802206 ], [ 110.397981, -7.80223 ], [ 110.398248, -7.802188 ], [ 110.401732, -7.802307 ], [ 110.402084, -7.802345 ], [ 110.402203, -7.802278 ], [ 110.402264, -7.802162 ], [ 110.402324, -7.799027 ], [ 110.402369, -7.798835 ], [ 110.40252, -7.798667 ], [ 110.402732, -7.79857 ], [ 110.405125, -7.798579 ], [ 110.40604, -7.798562 ], [ 110.409534, -7.798562 ], [ 110.409788, -7.798464 ], [ 110.409861, -7.798232 ], [ 110.410258, -7.786538 ], [ 110.410215, -7.786535 ], [ 110.410338, -7.783677 ], [ 110.410376, -7.783592 ], [ 110.410385, -7.783409 ], [ 110.410483, -7.783247 ], [ 110.410671, -7.783169 ], [ 110.411022, -7.78319 ], [ 110.413871, -7.783225 ], [ 110.414113, -7.783262 ], [ 110.419079, -7.783266 ], [ 110.425923, -7.783326 ], [ 110.429462, -7.783404 ], [ 110.43001, -7.783409 ], [ 110.430064, -7.783388 ], [ 110.437807, -7.783403 ], [ 110.438085, -7.783585 ], [ 110.437947, -7.784756 ], [ 110.437413, -7.784708 ], [ 110.437119, -7.784643 ], [ 110.435771, -7.784527 ], [ 110.435606, -7.784527 ], [ 110.435494, -7.78459 ], [ 110.435337, -7.784602 ], [ 110.435296, -7.784424 ], [ 110.43535, -7.784308 ], [ 110.435628, -7.784158 ], [ 110.436418, -7.784214 ], [ 110.436532, -7.784281 ], [ 110.436594, -7.784499 ], [ 110.437148, -7.78455 ], [ 110.437436, -7.784612 ], [ 110.437874, -7.784649 ], [ 110.437992, -7.783617 ], [ 110.438182, -7.783453 ], [ 110.446891, -7.78346 ], [ 110.447024, -7.78344 ], [ 110.447221, -7.783378 ], [ 110.464306, -7.774045 ], [ 110.46598, -7.773187 ], [ 110.466285, -7.772995 ], [ 110.466589, -7.772738 ], [ 110.467984, -7.771102 ], [ 110.474242, -7.763803 ], [ 110.479681, -7.757693 ], [ 110.480383, -7.757189 ], [ 110.48119, -7.756908 ], [ 110.488733, -7.755528 ], [ 110.488984, -7.755585 ], [ 110.489092, -7.756001 ], [ 110.489853, -7.755834 ], [ 110.489812, -7.755647 ] ] ] } },
{ "type": "Feature", "properties": { "Name": "(1B) - Trans Jogja", "descriptio": "Halte Bandara Adisutjipto > TPB Hyundai > Halte Jayakarta > Halte Janti Utara > Halte Mall Sahid J-Walk > TPB Ruko Babarsari > TPB Kledokan > Halte RS Hardjolukito > TPB Wonocatur > TPB BKPM DIY > Halte Gembira Loka > Halte SGM 1 > TPB Gajah Makam Ksmn K" }, "geometry": { "type": "MultiLineString", "coordinates": [ [ [ 110.435755, -7.784484 ], [ 110.435587, -7.784483 ], [ 110.435466, -7.784546 ], [ 110.435368, -7.784551 ], [ 110.435341, -7.784438 ], [ 110.435393, -7.784352 ], [ 110.435649, -7.784222 ], [ 110.436422, -7.784281 ], [ 110.436569, -7.784162 ], [ 110.436618, -7.783825 ], [ 110.436457, -7.783691 ], [ 110.436034, -7.783682 ], [ 110.435846, -7.783557 ], [ 110.429461, -7.783518 ], [ 110.425908, -7.783435 ], [ 110.419101, -7.783377 ], [ 110.411015, -7.783337 ], [ 110.411014, -7.783242 ], [ 110.413863, -7.783283 ], [ 110.413938, -7.783231 ], [ 110.413978, -7.783148 ], [ 110.414861, -7.77882 ], [ 110.41582, -7.774457 ], [ 110.415832, -7.77433 ], [ 110.415758, -7.774254 ], [ 110.415606, -7.774246 ], [ 110.415477, -7.774285 ], [ 110.415288, -7.774291 ], [ 110.409112, -7.773623 ], [ 110.40904, -7.773642 ], [ 110.40901, -7.773734 ], [ 110.40834, -7.777083 ], [ 110.408321, -7.777376 ], [ 110.40836, -7.777686 ], [ 110.408449, -7.777901 ], [ 110.408521, -7.778031 ], [ 110.408587, -7.778886 ], [ 110.408319, -7.783269 ], [ 110.41034, -7.783291 ], [ 110.410503, -7.783407 ], [ 110.410504, -7.783837 ], [ 110.410389, -7.786478 ], [ 110.410348, -7.787143 ], [ 110.409979, -7.798212 ], [ 110.409857, -7.798527 ], [ 110.409541, -7.798614 ], [ 110.406057, -7.798621 ], [ 110.405122, -7.798652 ], [ 110.402757, -7.798664 ], [ 110.402559, -7.798738 ], [ 110.402432, -7.798873 ], [ 110.402381, -7.799041 ], [ 110.402305, -7.802168 ], [ 110.402244, -7.802308 ], [ 110.402103, -7.802391 ], [ 110.401733, -7.802353 ], [ 110.398974, -7.802267 ], [ 110.398253, -7.802244 ], [ 110.398052, -7.802299 ], [ 110.397208, -7.802278 ], [ 110.396628, -7.802204 ], [ 110.395154, -7.802173 ], [ 110.392008, -7.80212 ], [ 110.389053, -7.802039 ], [ 110.384262, -7.80191 ], [ 110.384044, -7.801893 ], [ 110.378874, -7.801757 ], [ 110.378535, -7.801762 ], [ 110.373237, -7.801601 ], [ 110.373062, -7.80159 ], [ 110.369463, -7.801536 ], [ 110.369001, -7.801549 ], [ 110.364797, -7.801422 ], [ 110.364452, -7.801402 ], [ 110.362181, -7.801314 ], [ 110.362096, -7.80128 ], [ 110.362055, -7.801188 ], [ 110.362151, -7.797644 ], [ 110.362163, -7.796272 ], [ 110.362061, -7.796101 ], [ 110.361728, -7.795897 ], [ 110.36135, -7.795567 ], [ 110.361275, -7.795459 ], [ 110.36124, -7.795322 ], [ 110.361344, -7.793561 ], [ 110.361728, -7.791585 ], [ 110.362099, -7.78989 ], [ 110.362063, -7.78977 ], [ 110.361803, -7.789648 ], [ 110.361597, -7.789612 ], [ 110.360111, -7.789558 ], [ 110.35774, -7.789363 ], [ 110.357579, -7.789315 ], [ 110.357493, -7.78918 ], [ 110.35752, -7.788481 ], [ 110.357591, -7.788278 ], [ 110.357786, -7.788157 ], [ 110.358757, -7.787887 ], [ 110.359032, -7.787698 ], [ 110.359756, -7.787036 ], [ 110.360671, -7.785356 ], [ 110.360716, -7.785141 ], [ 110.360818, -7.783027 ], [ 110.36089, -7.782851 ], [ 110.361008, -7.782786 ], [ 110.363424, -7.782841 ], [ 110.366975, -7.782894 ], [ 110.367056, -7.782819 ], [ 110.367164, -7.782824 ], [ 110.367302, -7.782891 ], [ 110.370925, -7.782944 ], [ 110.374506, -7.782969 ], [ 110.374688, -7.782902 ], [ 110.374856, -7.78289 ], [ 110.37497, -7.782795 ], [ 110.375495, -7.779693 ], [ 110.376018, -7.776352 ], [ 110.375978, -7.776244 ], [ 110.375929, -7.776051 ], [ 110.375931, -7.775956 ], [ 110.376001, -7.775851 ], [ 110.376154, -7.775849 ], [ 110.376233, -7.775938 ], [ 110.376236, -7.776103 ], [ 110.379323, -7.776234 ], [ 110.379574, -7.776295 ], [ 110.379824, -7.776426 ], [ 110.380536, -7.776574 ], [ 110.381577, -7.776707 ], [ 110.382462, -7.776883 ], [ 110.383295, -7.776966 ], [ 110.38366, -7.777049 ], [ 110.386086, -7.77788 ], [ 110.386266, -7.777897 ], [ 110.387452, -7.777603 ], [ 110.387616, -7.7776 ], [ 110.388523, -7.777801 ], [ 110.38863, -7.777783 ], [ 110.388676, -7.777727 ], [ 110.38977, -7.771916 ], [ 110.389921, -7.771234 ], [ 110.390066, -7.770771 ], [ 110.391275, -7.768212 ], [ 110.392292, -7.76561 ], [ 110.39263, -7.764989 ], [ 110.393565, -7.763585 ], [ 110.393734, -7.763236 ], [ 110.394179, -7.761403 ], [ 110.394285, -7.761144 ], [ 110.395324, -7.759337 ], [ 110.395627, -7.758645 ], [ 110.395765, -7.758147 ], [ 110.395944, -7.757245 ], [ 110.395944, -7.757072 ], [ 110.395894, -7.756894 ], [ 110.395977, -7.75656 ], [ 110.396035, -7.756499 ], [ 110.396099, -7.756532 ], [ 110.395715, -7.758519 ], [ 110.39536, -7.759355 ], [ 110.394331, -7.761172 ], [ 110.394227, -7.761423 ], [ 110.393776, -7.763257 ], [ 110.393603, -7.763608 ], [ 110.392658, -7.765016 ], [ 110.392333, -7.765631 ], [ 110.391313, -7.768232 ], [ 110.390114, -7.770797 ], [ 110.389972, -7.771248 ], [ 110.38982, -7.771932 ], [ 110.3887, -7.777872 ], [ 110.387802, -7.78281 ], [ 110.387803, -7.782922 ], [ 110.38786, -7.783004 ], [ 110.387986, -7.783037 ], [ 110.388162, -7.783056 ], [ 110.395122, -7.783142 ], [ 110.396662, -7.783148 ], [ 110.410346, -7.783276 ], [ 110.410516, -7.7834 ], [ 110.410517, -7.783838 ], [ 110.410399, -7.786478 ], [ 110.41029, -7.786474 ], [ 110.410434, -7.783431 ], [ 110.410514, -7.783296 ], [ 110.410678, -7.783222 ], [ 110.411015, -7.783231 ], [ 110.413864, -7.78327 ], [ 110.414105, -7.783302 ], [ 110.4191, -7.783312 ], [ 110.425908, -7.78337 ], [ 110.429456, -7.783447 ], [ 110.430125, -7.78345 ], [ 110.437795, -7.783457 ], [ 110.438034, -7.783618 ], [ 110.437915, -7.784702 ], [ 110.43742, -7.784662 ], [ 110.437134, -7.784604 ], [ 110.435755, -7.784484 ] ] ] } },
{ "type": "Feature", "properties": { "Name": "(3A) - Trans Jogja", "descriptio": "Halte Bandara Adisutjipto >  TPB PU PJN > Halte Instiper 2 > TPB Polsek Depok Timur 2 > Halte UPN Veteran > TPB Pakuwon Mall > Halte Terminal Condong Catur > TPB Manggung > TPB Graha Asus > TPB Biologi UGM > Halte RS Sardjito 1 > TPB FKG UGM 1 > Halte Vo" }, "geometry": { "type": "MultiLineString", "coordinates": [ [ [ 110.391887, -7.834113 ], [ 110.391967, -7.83401 ], [ 110.392943, -7.833975 ], [ 110.393077, -7.834042 ], [ 110.393153, -7.83416 ], [ 110.393531, -7.834268 ], [ 110.393611, -7.834401 ], [ 110.393619, -7.834672 ], [ 110.393426, -7.835832 ], [ 110.392855, -7.836218 ], [ 110.392658, -7.836246 ], [ 110.392046, -7.836176 ], [ 110.39181, -7.83636 ], [ 110.391649, -7.836298 ], [ 110.39025, -7.833124 ], [ 110.390166, -7.83283 ], [ 110.389846, -7.829472 ], [ 110.390078, -7.82605 ], [ 110.390114, -7.825822 ], [ 110.390151, -7.825283 ], [ 110.3902, -7.825211 ], [ 110.390323, -7.825224 ], [ 110.391887, -7.826125 ], [ 110.393312, -7.826892 ], [ 110.394501, -7.82723 ], [ 110.394564, -7.827194 ], [ 110.394602, -7.82701 ], [ 110.394626, -7.826706 ], [ 110.394635, -7.826377 ], [ 110.394824, -7.825497 ], [ 110.395128, -7.824671 ], [ 110.395502, -7.822883 ], [ 110.39557, -7.822783 ], [ 110.396188, -7.822494 ], [ 110.39702, -7.822213 ], [ 110.397462, -7.822208 ], [ 110.398012, -7.822284 ], [ 110.398855, -7.822476 ], [ 110.399776, -7.822721 ], [ 110.400591, -7.82278 ], [ 110.400649, -7.822734 ], [ 110.400747, -7.822012 ], [ 110.400971, -7.820681 ], [ 110.401026, -7.820313 ], [ 110.401172, -7.819686 ], [ 110.40125, -7.819431 ], [ 110.40165, -7.818407 ], [ 110.401773, -7.818054 ], [ 110.401906, -7.817587 ], [ 110.401962, -7.817323 ], [ 110.402004, -7.817025 ], [ 110.40202, -7.816737 ], [ 110.402072, -7.814269 ], [ 110.402173, -7.807404 ], [ 110.402264, -7.802741 ], [ 110.402274, -7.802172 ], [ 110.402335, -7.799024 ], [ 110.402379, -7.798845 ], [ 110.402525, -7.798683 ], [ 110.402736, -7.798582 ], [ 110.405125, -7.798593 ], [ 110.406058, -7.798574 ], [ 110.409535, -7.798577 ], [ 110.409802, -7.798475 ], [ 110.409895, -7.798173 ], [ 110.410262, -7.787124 ], [ 110.410281, -7.786475 ], [ 110.410422, -7.783426 ], [ 110.410507, -7.783283 ], [ 110.410673, -7.78321 ], [ 110.411014, -7.78322 ], [ 110.413863, -7.783258 ], [ 110.414107, -7.783288 ], [ 110.419069, -7.783297 ], [ 110.42591, -7.783356 ], [ 110.429472, -7.783434 ], [ 110.430156, -7.783437 ], [ 110.437797, -7.783445 ], [ 110.438047, -7.78361 ], [ 110.437924, -7.784716 ], [ 110.437417, -7.784673 ], [ 110.437128, -7.784615 ], [ 110.435762, -7.784497 ], [ 110.435591, -7.784494 ], [ 110.435475, -7.784556 ], [ 110.435361, -7.784564 ], [ 110.435329, -7.784433 ], [ 110.43538, -7.784343 ], [ 110.435643, -7.784203 ], [ 110.436419, -7.784264 ], [ 110.436554, -7.784148 ], [ 110.4366, -7.783832 ], [ 110.436452, -7.783714 ], [ 110.436031, -7.783706 ], [ 110.435838, -7.783579 ], [ 110.429997, -7.783537 ], [ 110.429931, -7.783508 ], [ 110.429795, -7.783354 ], [ 110.42978, -7.783123 ], [ 110.430979, -7.770644 ], [ 110.431353, -7.768037 ], [ 110.431366, -7.767645 ], [ 110.431298, -7.767248 ], [ 110.431151, -7.766861 ], [ 110.430935, -7.766517 ], [ 110.43065, -7.766202 ], [ 110.430291, -7.765959 ], [ 110.429785, -7.765756 ], [ 110.424689, -7.764707 ], [ 110.416822, -7.762844 ], [ 110.412, -7.76182 ], [ 110.410673, -7.761462 ], [ 110.401291, -7.758435 ], [ 110.400626, -7.758265 ], [ 110.3999, -7.758168 ], [ 110.398835, -7.758135 ], [ 110.398432, -7.758144 ], [ 110.398019, -7.758183 ], [ 110.395881, -7.758471 ], [ 110.395749, -7.758351 ], [ 110.395745, -7.758152 ], [ 110.395923, -7.757244 ], [ 110.395924, -7.757077 ], [ 110.395872, -7.756897 ], [ 110.395955, -7.756542 ], [ 110.396028, -7.756465 ], [ 110.396127, -7.756517 ], [ 110.395807, -7.758212 ], [ 110.395724, -7.758419 ], [ 110.395504, -7.758527 ], [ 110.390278, -7.759816 ], [ 110.389979, -7.759862 ], [ 110.389576, -7.759853 ], [ 110.388674, -7.759705 ], [ 110.388152, -7.759524 ], [ 110.387733, -7.759254 ], [ 110.387409, -7.758962 ], [ 110.383724, -7.755335 ], [ 110.383554, -7.75521 ], [ 110.383352, -7.755158 ], [ 110.383217, -7.75518 ], [ 110.382672, -7.756113 ], [ 110.382242, -7.757028 ], [ 110.378641, -7.765809 ], [ 110.378562, -7.765879 ], [ 110.37847, -7.765888 ], [ 110.376195, -7.764975 ], [ 110.375879, -7.764884 ], [ 110.375579, -7.764989 ], [ 110.375412, -7.765144 ], [ 110.375241, -7.765619 ], [ 110.375117, -7.766253 ], [ 110.374565, -7.766999 ], [ 110.373246, -7.770562 ], [ 110.37326, -7.770742 ], [ 110.373387, -7.770849 ], [ 110.376032, -7.771643 ], [ 110.376114, -7.771735 ], [ 110.376123, -7.771875 ], [ 110.374462, -7.775894 ], [ 110.37445, -7.776048 ], [ 110.374625, -7.776112 ], [ 110.375727, -7.776142 ], [ 110.375918, -7.776049 ], [ 110.37592, -7.775951 ], [ 110.375992, -7.775839 ], [ 110.376159, -7.775835 ], [ 110.376246, -7.775931 ], [ 110.37625, -7.776101 ], [ 110.376254, -7.776157 ], [ 110.376154, -7.776227 ], [ 110.376067, -7.776403 ], [ 110.375014, -7.782846 ], [ 110.374998, -7.783107 ], [ 110.374372, -7.786735 ], [ 110.374406, -7.78685 ], [ 110.374816, -7.786995 ], [ 110.375361, -7.787355 ], [ 110.374906, -7.788248 ], [ 110.374791, -7.788407 ], [ 110.374613, -7.788518 ], [ 110.374414, -7.788563 ], [ 110.374101, -7.788563 ], [ 110.37363, -7.788433 ], [ 110.3734, -7.788327 ], [ 110.373296, -7.788222 ], [ 110.373241, -7.788061 ], [ 110.37316, -7.787961 ], [ 110.373062, -7.787907 ], [ 110.37278, -7.787915 ], [ 110.372383, -7.787984 ], [ 110.371933, -7.788143 ], [ 110.371496, -7.788384 ], [ 110.369908, -7.789492 ], [ 110.36975, -7.789549 ], [ 110.369333, -7.789605 ], [ 110.369218, -7.789644 ], [ 110.369131, -7.789717 ], [ 110.369063, -7.789906 ], [ 110.368967, -7.790405 ], [ 110.368907, -7.790498 ], [ 110.368818, -7.790548 ], [ 110.368563, -7.790585 ], [ 110.368372, -7.790588 ], [ 110.368191, -7.790515 ], [ 110.368035, -7.790423 ], [ 110.367936, -7.790419 ], [ 110.367797, -7.790472 ], [ 110.367685, -7.790469 ], [ 110.367627, -7.790418 ], [ 110.367534, -7.790282 ], [ 110.367437, -7.790193 ], [ 110.366211, -7.79013 ], [ 110.366173, -7.7902 ], [ 110.365409, -7.796388 ], [ 110.364811, -7.801129 ], [ 110.364758, -7.801288 ], [ 110.364634, -7.801383 ], [ 110.364391, -7.801424 ], [ 110.362182, -7.801333 ], [ 110.3619, -7.801327 ], [ 110.356724, -7.80118 ], [ 110.356591, -7.801226 ], [ 110.356517, -7.801336 ], [ 110.35645, -7.803438 ], [ 110.3563, -7.803424 ], [ 110.35623, -7.803533 ], [ 110.356183, -7.804019 ], [ 110.356218, -7.804131 ], [ 110.356273, -7.804173 ], [ 110.356289, -7.804263 ], [ 110.356249, -7.804336 ], [ 110.356221, -7.804517 ], [ 110.356206, -7.804684 ], [ 110.356044, -7.808641 ], [ 110.355903, -7.812615 ], [ 110.355926, -7.812888 ], [ 110.355988, -7.813031 ], [ 110.356106, -7.813101 ], [ 110.356417, -7.813123 ], [ 110.362837, -7.814026 ], [ 110.368298, -7.814766 ], [ 110.368808, -7.814632 ], [ 110.376216, -7.815732 ], [ 110.375917, -7.817781 ], [ 110.375911, -7.818182 ], [ 110.375973, -7.818517 ], [ 110.376911, -7.820944 ], [ 110.378458, -7.824776 ], [ 110.381114, -7.824772 ], [ 110.381435, -7.824782 ], [ 110.38213, -7.82501 ], [ 110.382557, -7.825093 ], [ 110.383407, -7.825206 ], [ 110.383751, -7.825202 ], [ 110.384464, -7.825291 ], [ 110.387224, -7.825401 ], [ 110.387763, -7.825453 ], [ 110.388999, -7.825758 ], [ 110.390024, -7.825917 ], [ 110.390104, -7.826054 ], [ 110.389878, -7.829475 ], [ 110.390196, -7.83283 ], [ 110.390278, -7.833121 ], [ 110.390639, -7.833905 ], [ 110.390923, -7.834498 ], [ 110.391045, -7.834571 ], [ 110.391693, -7.834632 ], [ 110.391781, -7.834601 ], [ 110.391847, -7.834518 ], [ 110.391887, -7.834113 ] ] ] } },
{ "type": "Feature", "properties": { "Name": "(3B) - Trans Jogja", "descriptio": "Halte Terminal Giwangan > TPB Pasar Giwangan 1 > TPB Gudang SGM > TPB Tegal Turi 2 > Halte Nitikan > TPB Widya Wiwaha 2 > TPB PA Muhammadiyah > Halte Museum Perjuangan > TPB Jokteng Wetan > TPB Pasar Gading > Halte SMA N 7 > TPB Tejokusuman > Halte Ngabe" }, "geometry": { "type": "MultiLineString", "coordinates": [ [ [ 110.391879, -7.834109 ], [ 110.391964, -7.833999 ], [ 110.392948, -7.833964 ], [ 110.393084, -7.834033 ], [ 110.393159, -7.83415 ], [ 110.393538, -7.834259 ], [ 110.393621, -7.8344 ], [ 110.393627, -7.834674 ], [ 110.393434, -7.835838 ], [ 110.392859, -7.836227 ], [ 110.392658, -7.836257 ], [ 110.392049, -7.836188 ], [ 110.391811, -7.836371 ], [ 110.391641, -7.836306 ], [ 110.390242, -7.833131 ], [ 110.390157, -7.832839 ], [ 110.389837, -7.829474 ], [ 110.39007, -7.826046 ], [ 110.390015, -7.825951 ], [ 110.388984, -7.825778 ], [ 110.387756, -7.825478 ], [ 110.387225, -7.825427 ], [ 110.384456, -7.825323 ], [ 110.383754, -7.825235 ], [ 110.383409, -7.825239 ], [ 110.382559, -7.825119 ], [ 110.382126, -7.825042 ], [ 110.381435, -7.824806 ], [ 110.381121, -7.824791 ], [ 110.378422, -7.824805 ], [ 110.376872, -7.820939 ], [ 110.37594, -7.818527 ], [ 110.375877, -7.818186 ], [ 110.375888, -7.817778 ], [ 110.376173, -7.815779 ], [ 110.36878, -7.814702 ], [ 110.368303, -7.814806 ], [ 110.362821, -7.814054 ], [ 110.356415, -7.813173 ], [ 110.356098, -7.813159 ], [ 110.355955, -7.813074 ], [ 110.35587, -7.812887 ], [ 110.355852, -7.812606 ], [ 110.356008, -7.808633 ], [ 110.356173, -7.804682 ], [ 110.356184, -7.804506 ], [ 110.356214, -7.80432 ], [ 110.356289, -7.804136 ], [ 110.356362, -7.803932 ], [ 110.356377, -7.803726 ], [ 110.356385, -7.803422 ], [ 110.356297, -7.803416 ], [ 110.356223, -7.803531 ], [ 110.356176, -7.80402 ], [ 110.356211, -7.80413 ], [ 110.356284, -7.804134 ], [ 110.356356, -7.80393 ], [ 110.356371, -7.803725 ], [ 110.356378, -7.803415 ], [ 110.356388, -7.8034 ], [ 110.356453, -7.801335 ], [ 110.356552, -7.801175 ], [ 110.356714, -7.801127 ], [ 110.361902, -7.801286 ], [ 110.361995, -7.801252 ], [ 110.362047, -7.801186 ], [ 110.362139, -7.797654 ], [ 110.362151, -7.796275 ], [ 110.36205, -7.796111 ], [ 110.36172, -7.795907 ], [ 110.36134, -7.795577 ], [ 110.361262, -7.795464 ], [ 110.361227, -7.795312 ], [ 110.361327, -7.793549 ], [ 110.361716, -7.791571 ], [ 110.362086, -7.789893 ], [ 110.362052, -7.78978 ], [ 110.3618, -7.789662 ], [ 110.361597, -7.789627 ], [ 110.360094, -7.789571 ], [ 110.357739, -7.789373 ], [ 110.357575, -7.789323 ], [ 110.357477, -7.78917 ], [ 110.357506, -7.788477 ], [ 110.357575, -7.788265 ], [ 110.357777, -7.788137 ], [ 110.358754, -7.787872 ], [ 110.359026, -7.787685 ], [ 110.359749, -7.787029 ], [ 110.360657, -7.785349 ], [ 110.3607, -7.785141 ], [ 110.3608, -7.783029 ], [ 110.360882, -7.78282 ], [ 110.361004, -7.782755 ], [ 110.363419, -7.782809 ], [ 110.366981, -7.782866 ], [ 110.367051, -7.782807 ], [ 110.367165, -7.782811 ], [ 110.367306, -7.78288 ], [ 110.37094, -7.782931 ], [ 110.374505, -7.782956 ], [ 110.374682, -7.782895 ], [ 110.374853, -7.782877 ], [ 110.37496, -7.782793 ], [ 110.375483, -7.779711 ], [ 110.376007, -7.776352 ], [ 110.375966, -7.776247 ], [ 110.375838, -7.776178 ], [ 110.374609, -7.77614 ], [ 110.374415, -7.77607 ], [ 110.37443, -7.77588 ], [ 110.376094, -7.771861 ], [ 110.376082, -7.771756 ], [ 110.37602, -7.77168 ], [ 110.373375, -7.770885 ], [ 110.373236, -7.770762 ], [ 110.373224, -7.770554 ], [ 110.374533, -7.766979 ], [ 110.375097, -7.766239 ], [ 110.375202, -7.765609 ], [ 110.375366, -7.765119 ], [ 110.375552, -7.764948 ], [ 110.375723, -7.764844 ], [ 110.375861, -7.764737 ], [ 110.375924, -7.764645 ], [ 110.376055, -7.764628 ], [ 110.378268, -7.765616 ], [ 110.378518, -7.765617 ], [ 110.378675, -7.765523 ], [ 110.382201, -7.756995 ], [ 110.382613, -7.756071 ], [ 110.383157, -7.755045 ], [ 110.383348, -7.754987 ], [ 110.383628, -7.755117 ], [ 110.387452, -7.758867 ], [ 110.387782, -7.75917 ], [ 110.388197, -7.759432 ], [ 110.388686, -7.759604 ], [ 110.389574, -7.759755 ], [ 110.389961, -7.759762 ], [ 110.390272, -7.75971 ], [ 110.395381, -7.758447 ], [ 110.39556, -7.758344 ], [ 110.395736, -7.758147 ], [ 110.395913, -7.757244 ], [ 110.395914, -7.757079 ], [ 110.395861, -7.756899 ], [ 110.395943, -7.756534 ], [ 110.396025, -7.756446 ], [ 110.39614, -7.75651 ], [ 110.395842, -7.758082 ], [ 110.395963, -7.758254 ], [ 110.396166, -7.758318 ], [ 110.397998, -7.758087 ], [ 110.398423, -7.758047 ], [ 110.398855, -7.758031 ], [ 110.39992, -7.758052 ], [ 110.400649, -7.758149 ], [ 110.401327, -7.758312 ], [ 110.40824, -7.760539 ], [ 110.41073, -7.761341 ], [ 110.412071, -7.761706 ], [ 110.416942, -7.762758 ], [ 110.424671, -7.76459 ], [ 110.429292, -7.765546 ], [ 110.42941, -7.765513 ], [ 110.429845, -7.765606 ], [ 110.430364, -7.765805 ], [ 110.430778, -7.766095 ], [ 110.43107, -7.766432 ], [ 110.431307, -7.76682 ], [ 110.431458, -7.767244 ], [ 110.431505, -7.767654 ], [ 110.431478, -7.768073 ], [ 110.431075, -7.770657 ], [ 110.429884, -7.78313 ], [ 110.42991, -7.783282 ], [ 110.429998, -7.783387 ], [ 110.430075, -7.78342 ], [ 110.437801, -7.783432 ], [ 110.43806, -7.783602 ], [ 110.437932, -7.78473 ], [ 110.437414, -7.784684 ], [ 110.437125, -7.784625 ], [ 110.435762, -7.784508 ], [ 110.435598, -7.784506 ], [ 110.435483, -7.784566 ], [ 110.435353, -7.784578 ], [ 110.435319, -7.784428 ], [ 110.435367, -7.784331 ], [ 110.435637, -7.784186 ], [ 110.436412, -7.784245 ], [ 110.436541, -7.784138 ], [ 110.436583, -7.783842 ], [ 110.436448, -7.783737 ], [ 110.436023, -7.783726 ], [ 110.435833, -7.783601 ], [ 110.429995, -7.783551 ], [ 110.429956, -7.783532 ], [ 110.429466, -7.783531 ], [ 110.425908, -7.783448 ], [ 110.419102, -7.78339 ], [ 110.411116, -7.783347 ], [ 110.410925, -7.783376 ], [ 110.410725, -7.783435 ], [ 110.410591, -7.783584 ], [ 110.410531, -7.78384 ], [ 110.410409, -7.786481 ], [ 110.4104, -7.786495 ], [ 110.410362, -7.787136 ], [ 110.409992, -7.798214 ], [ 110.409865, -7.798538 ], [ 110.409545, -7.798629 ], [ 110.406058, -7.798632 ], [ 110.405133, -7.798663 ], [ 110.402763, -7.798678 ], [ 110.402571, -7.798749 ], [ 110.402441, -7.798882 ], [ 110.402392, -7.799046 ], [ 110.402314, -7.802167 ], [ 110.402324, -7.802764 ], [ 110.40222, -7.807416 ], [ 110.40213, -7.814241 ], [ 110.402066, -7.816736 ], [ 110.40205, -7.817032 ], [ 110.402011, -7.817338 ], [ 110.401955, -7.817596 ], [ 110.401825, -7.818077 ], [ 110.401698, -7.818448 ], [ 110.401303, -7.819471 ], [ 110.401228, -7.819706 ], [ 110.401078, -7.820339 ], [ 110.401013, -7.820703 ], [ 110.400691, -7.822749 ], [ 110.40059, -7.822806 ], [ 110.399776, -7.822746 ], [ 110.398843, -7.822499 ], [ 110.398018, -7.822312 ], [ 110.397474, -7.822235 ], [ 110.397032, -7.822241 ], [ 110.396203, -7.82252 ], [ 110.395592, -7.8228 ], [ 110.395524, -7.822894 ], [ 110.395164, -7.824687 ], [ 110.394846, -7.825502 ], [ 110.394657, -7.826383 ], [ 110.394647, -7.826697 ], [ 110.394621, -7.827014 ], [ 110.394578, -7.827203 ], [ 110.394506, -7.827247 ], [ 110.393295, -7.826925 ], [ 110.390319, -7.825259 ], [ 110.390237, -7.825252 ], [ 110.390171, -7.825289 ], [ 110.390112, -7.826055 ], [ 110.38989, -7.829477 ], [ 110.390207, -7.832829 ], [ 110.390286, -7.833115 ], [ 110.390648, -7.833901 ], [ 110.390929, -7.834493 ], [ 110.391047, -7.834564 ], [ 110.391693, -7.834624 ], [ 110.391776, -7.834595 ], [ 110.39184, -7.834513 ], [ 110.391879, -7.834109 ] ] ] } },
{ "type": "Feature", "properties": { "Name": "(5B) - Trans Jogja", "descriptio": "Halte Terminal Jombor > Halte Monjali 1 > TPB PDAM Monjali > TPB Teknik UGM 1 > TPB MM UGM >  TPB Hotel Vidi > TPB Kentungan > Halte Terminal Condong Catur > TPB  BTN > TPB RS JIH > Halte Stikes Guna Bangsa > TPB STIE YKPN 2 > TPB SMP N 4 Depok > TPB Dis" }, "geometry": { "type": "MultiLineString", "coordinates": [ [ [ 110.361214, -7.747373 ], [ 110.361062, -7.747333 ], [ 110.361009, -7.747508 ], [ 110.36064, -7.747407 ], [ 110.360607, -7.747455 ], [ 110.360701, -7.747629 ], [ 110.360753, -7.747803 ], [ 110.360763, -7.748106 ], [ 110.360716, -7.748386 ], [ 110.362154, -7.749015 ], [ 110.362319, -7.748977 ], [ 110.36246, -7.74903 ], [ 110.362469, -7.749043 ], [ 110.36252, -7.749064 ], [ 110.362863, -7.749317 ], [ 110.363632, -7.749676 ], [ 110.364492, -7.749976 ], [ 110.365266, -7.75023 ], [ 110.366087, -7.75039 ], [ 110.369291, -7.750751 ], [ 110.371028, -7.75112 ], [ 110.371126, -7.751308 ], [ 110.371097, -7.751517 ], [ 110.370028, -7.754473 ], [ 110.369777, -7.757594 ], [ 110.369494, -7.760254 ], [ 110.369393, -7.761891 ], [ 110.369441, -7.761998 ], [ 110.369535, -7.76205 ], [ 110.369755, -7.762103 ], [ 110.370679, -7.762437 ], [ 110.371754, -7.762781 ], [ 110.372365, -7.763026 ], [ 110.37286, -7.763055 ], [ 110.373451, -7.763055 ], [ 110.373585, -7.763126 ], [ 110.373724, -7.7635 ], [ 110.373793, -7.763645 ], [ 110.373918, -7.763786 ], [ 110.375904, -7.764615 ], [ 110.37606, -7.764593 ], [ 110.37829, -7.765607 ], [ 110.378514, -7.765606 ], [ 110.378666, -7.765519 ], [ 110.382194, -7.756985 ], [ 110.382602, -7.756066 ], [ 110.383149, -7.755033 ], [ 110.383345, -7.754972 ], [ 110.383634, -7.755107 ], [ 110.387462, -7.758857 ], [ 110.387789, -7.759161 ], [ 110.388202, -7.75942 ], [ 110.388691, -7.759593 ], [ 110.389575, -7.759745 ], [ 110.389962, -7.759754 ], [ 110.390269, -7.759701 ], [ 110.395379, -7.758436 ], [ 110.395555, -7.758333 ], [ 110.395727, -7.758142 ], [ 110.395725, -7.758097 ], [ 110.395895, -7.757243 ], [ 110.395894, -7.757079 ], [ 110.395837, -7.756896 ], [ 110.39592, -7.756517 ], [ 110.39602, -7.756411 ], [ 110.396166, -7.756499 ], [ 110.395863, -7.75809 ], [ 110.395967, -7.758243 ], [ 110.396169, -7.758307 ], [ 110.397996, -7.758079 ], [ 110.398429, -7.758037 ], [ 110.398855, -7.758019 ], [ 110.399922, -7.758042 ], [ 110.400646, -7.758138 ], [ 110.40134, -7.758307 ], [ 110.410724, -7.761326 ], [ 110.411977, -7.761665 ], [ 110.412027, -7.761857 ], [ 110.412009, -7.761985 ], [ 110.411792, -7.763051 ], [ 110.411414, -7.764258 ], [ 110.411342, -7.764311 ], [ 110.411091, -7.764325 ], [ 110.410994, -7.764423 ], [ 110.410904, -7.76478 ], [ 110.409725, -7.770452 ], [ 110.409329, -7.772289 ], [ 110.409377, -7.772378 ], [ 110.411031, -7.772792 ], [ 110.411106, -7.772849 ], [ 110.41114, -7.772961 ], [ 110.411031, -7.773643 ], [ 110.411043, -7.773731 ], [ 110.4111, -7.773812 ], [ 110.415289, -7.774262 ], [ 110.415472, -7.774255 ], [ 110.415607, -7.774214 ], [ 110.415767, -7.774218 ], [ 110.415867, -7.774318 ], [ 110.415855, -7.774467 ], [ 110.414937, -7.778685 ], [ 110.414012, -7.783145 ], [ 110.41403, -7.783237 ], [ 110.41411, -7.783274 ], [ 110.419098, -7.783281 ], [ 110.425909, -7.783341 ], [ 110.429482, -7.78342 ], [ 110.430021, -7.783418 ], [ 110.430067, -7.783402 ], [ 110.437805, -7.783418 ], [ 110.438072, -7.783592 ], [ 110.437941, -7.784744 ], [ 110.437415, -7.784697 ], [ 110.437123, -7.784635 ], [ 110.435761, -7.784518 ], [ 110.435601, -7.784518 ], [ 110.435489, -7.784579 ], [ 110.435345, -7.784591 ], [ 110.435308, -7.784427 ], [ 110.435357, -7.78432 ], [ 110.435632, -7.784172 ], [ 110.43641, -7.784227 ], [ 110.436528, -7.784125 ], [ 110.436565, -7.783852 ], [ 110.43644, -7.783754 ], [ 110.436016, -7.783744 ], [ 110.435826, -7.783619 ], [ 110.429996, -7.783563 ], [ 110.42995, -7.783545 ], [ 110.42947, -7.783545 ], [ 110.425915, -7.783461 ], [ 110.419102, -7.783404 ], [ 110.411118, -7.783355 ], [ 110.410925, -7.783387 ], [ 110.410733, -7.783442 ], [ 110.410599, -7.783591 ], [ 110.410559, -7.783789 ], [ 110.410554, -7.784075 ], [ 110.410438, -7.78651 ], [ 110.410248, -7.786507 ], [ 110.410374, -7.783622 ], [ 110.410317, -7.783488 ], [ 110.410224, -7.783401 ], [ 110.410074, -7.783359 ], [ 110.396683, -7.783246 ], [ 110.395335, -7.783231 ], [ 110.39494, -7.783215 ], [ 110.388147, -7.783127 ], [ 110.379444, -7.78306 ], [ 110.379074, -7.783032 ], [ 110.375332, -7.783011 ], [ 110.37523, -7.783076 ], [ 110.375092, -7.783076 ], [ 110.375021, -7.783112 ], [ 110.374392, -7.786739 ], [ 110.37442, -7.786833 ], [ 110.374831, -7.786979 ], [ 110.375376, -7.787342 ], [ 110.375364, -7.787372 ], [ 110.374915, -7.78826 ], [ 110.374803, -7.788418 ], [ 110.374619, -7.788535 ], [ 110.374418, -7.788577 ], [ 110.3741, -7.788579 ], [ 110.373618, -7.788448 ], [ 110.373385, -7.788339 ], [ 110.37328, -7.788229 ], [ 110.373231, -7.78807 ], [ 110.373205, -7.787862 ], [ 110.373178, -7.787473 ], [ 110.373208, -7.787142 ], [ 110.373378, -7.786899 ], [ 110.373647, -7.786833 ], [ 110.374081, -7.786861 ], [ 110.374216, -7.786807 ], [ 110.37432, -7.786628 ], [ 110.374907, -7.783118 ], [ 110.374944, -7.782785 ], [ 110.375461, -7.779717 ], [ 110.375984, -7.776353 ], [ 110.375953, -7.776262 ], [ 110.375833, -7.776201 ], [ 110.37461, -7.776162 ], [ 110.3744, -7.776089 ], [ 110.374176, -7.77606 ], [ 110.372859, -7.77552 ], [ 110.372711, -7.77551 ], [ 110.372648, -7.775583 ], [ 110.372348, -7.776288 ], [ 110.371903, -7.776915 ], [ 110.371818, -7.77712 ], [ 110.371505, -7.778378 ], [ 110.37142, -7.778518 ], [ 110.371259, -7.778568 ], [ 110.37083, -7.778544 ], [ 110.370313, -7.778477 ], [ 110.370049, -7.778418 ], [ 110.36933, -7.778363 ], [ 110.367862, -7.778191 ], [ 110.367444, -7.778154 ], [ 110.365368, -7.777804 ], [ 110.36518, -7.777822 ], [ 110.36254, -7.779057 ], [ 110.36241, -7.779074 ], [ 110.362224, -7.778986 ], [ 110.361093, -7.778348 ], [ 110.361005, -7.778184 ], [ 110.36178, -7.761335 ], [ 110.362319, -7.749576 ], [ 110.36224, -7.749457 ], [ 110.362113, -7.749388 ], [ 110.362051, -7.749238 ], [ 110.362159, -7.748938 ], [ 110.362281, -7.748808 ], [ 110.362322, -7.748489 ], [ 110.362342, -7.747892 ], [ 110.362274, -7.747796 ], [ 110.361678, -7.747666 ], [ 110.361718, -7.747508 ], [ 110.361214, -7.747373 ] ] ] } },
{ "type": "Feature", "properties": { "Name": "(14) - Trans Jogja", "descriptio": "Halte Bandara Adisujtipto > TPB KKP Yogyakarta > TPB PU PJN > TPB SMK N Depok 1 > TPB KUA Depok 1 > TPB MAN 2 Sleman 1 > TPB Budi Mulia 1 > TPB Kantor Kalurahan Wedomartani 1 > TPB Simpang Tajem Kabunan 1 > TPB Raya Kabunan 1 > TPB Rumah Sakit Mitra Para" }, "geometry": { "type": "MultiLineString", "coordinates": [ [ [ 110.435756, -7.784473 ], [ 110.435582, -7.784472 ], [ 110.435462, -7.784533 ], [ 110.435375, -7.784539 ], [ 110.435354, -7.784444 ], [ 110.435403, -7.784362 ], [ 110.435656, -7.784243 ], [ 110.436428, -7.784297 ], [ 110.436587, -7.784171 ], [ 110.436632, -7.783815 ], [ 110.436466, -7.78367 ], [ 110.436039, -7.783663 ], [ 110.435855, -7.783534 ], [ 110.429967, -7.783508 ], [ 110.42994, -7.783496 ], [ 110.429808, -7.783348 ], [ 110.429792, -7.783122 ], [ 110.430996, -7.770642 ], [ 110.431369, -7.768045 ], [ 110.43138, -7.767651 ], [ 110.43131, -7.767242 ], [ 110.431163, -7.766856 ], [ 110.430947, -7.766509 ], [ 110.430658, -7.766188 ], [ 110.430292, -7.765941 ], [ 110.429788, -7.765741 ], [ 110.424736, -7.764704 ], [ 110.424752, -7.764621 ], [ 110.429291, -7.765563 ], [ 110.429413, -7.765529 ], [ 110.429843, -7.765623 ], [ 110.430358, -7.765819 ], [ 110.430769, -7.766108 ], [ 110.430978, -7.766244 ], [ 110.431094, -7.766297 ], [ 110.43126, -7.766324 ], [ 110.431306, -7.766016 ], [ 110.431425, -7.765427 ], [ 110.432703, -7.761521 ], [ 110.433073, -7.760229 ], [ 110.434237, -7.752672 ], [ 110.434414, -7.751217 ], [ 110.434561, -7.750303 ], [ 110.434582, -7.749993 ], [ 110.434098, -7.745705 ], [ 110.434067, -7.744893 ], [ 110.434395, -7.739767 ], [ 110.434637, -7.735062 ], [ 110.434991, -7.728408 ], [ 110.435042, -7.726893 ], [ 110.435129, -7.725205 ], [ 110.435024, -7.724452 ], [ 110.435045, -7.724207 ], [ 110.435331, -7.72349 ], [ 110.435626, -7.722845 ], [ 110.435717, -7.722762 ], [ 110.438259, -7.722301 ], [ 110.438337, -7.722176 ], [ 110.438171, -7.71892 ], [ 110.438179, -7.718804 ], [ 110.438247, -7.718725 ], [ 110.440825, -7.717585 ], [ 110.440917, -7.717495 ], [ 110.441351, -7.716058 ], [ 110.441525, -7.715851 ], [ 110.441574, -7.7157 ], [ 110.441552, -7.715326 ], [ 110.441635, -7.714996 ], [ 110.441871, -7.714582 ], [ 110.442207, -7.714004 ], [ 110.442482, -7.713326 ], [ 110.442616, -7.713211 ], [ 110.442769, -7.713195 ], [ 110.4478, -7.713696 ], [ 110.4479, -7.713654 ], [ 110.447955, -7.713574 ], [ 110.448285, -7.71248 ], [ 110.448435, -7.712251 ], [ 110.448614, -7.712052 ], [ 110.448683, -7.711814 ], [ 110.449114, -7.709522 ], [ 110.449113, -7.709355 ], [ 110.448626, -7.706507 ], [ 110.448149, -7.703855 ], [ 110.447768, -7.702097 ], [ 110.447722, -7.702037 ], [ 110.447675, -7.702029 ], [ 110.447085, -7.702171 ], [ 110.447025, -7.702211 ], [ 110.44692, -7.702313 ], [ 110.446816, -7.702383 ], [ 110.446208, -7.702596 ], [ 110.446044, -7.702636 ], [ 110.44525, -7.702719 ], [ 110.445077, -7.702764 ], [ 110.442866, -7.703684 ], [ 110.440659, -7.704714 ], [ 110.440475, -7.704777 ], [ 110.439642, -7.705014 ], [ 110.439411, -7.705057 ], [ 110.439144, -7.705048 ], [ 110.438536, -7.704898 ], [ 110.438271, -7.704869 ], [ 110.43337, -7.704851 ], [ 110.431353, -7.704856 ], [ 110.429674, -7.704887 ], [ 110.428897, -7.704811 ], [ 110.426375, -7.704175 ], [ 110.424317, -7.703631 ], [ 110.422473, -7.703163 ], [ 110.422136, -7.702989 ], [ 110.419962, -7.702075 ], [ 110.418933, -7.701855 ], [ 110.415242, -7.700484 ], [ 110.417254, -7.697047 ], [ 110.418518, -7.694635 ], [ 110.418569, -7.694374 ], [ 110.418789, -7.686954 ], [ 110.419119, -7.684259 ], [ 110.419466, -7.683058 ], [ 110.419507, -7.682754 ], [ 110.41945, -7.682435 ], [ 110.418454, -7.680311 ], [ 110.417485, -7.67839 ], [ 110.417443, -7.678214 ], [ 110.417215, -7.675423 ], [ 110.417233, -7.674779 ], [ 110.417504, -7.670589 ], [ 110.417713, -7.667596 ], [ 110.417865, -7.667407 ], [ 110.418094, -7.667292 ], [ 110.418529, -7.667319 ], [ 110.418745, -7.667247 ], [ 110.418915, -7.66709 ], [ 110.419029, -7.666401 ], [ 110.419097, -7.666335 ], [ 110.419199, -7.666335 ], [ 110.419782, -7.666588 ], [ 110.419772, -7.666745 ], [ 110.419858, -7.666852 ], [ 110.420472, -7.666911 ], [ 110.420612, -7.667055 ], [ 110.420576, -7.667603 ], [ 110.418926, -7.667375 ], [ 110.418108, -7.667326 ], [ 110.417882, -7.667446 ], [ 110.417755, -7.66762 ], [ 110.417532, -7.67059 ], [ 110.417268, -7.674785 ], [ 110.417249, -7.675426 ], [ 110.41748, -7.678209 ], [ 110.417522, -7.678375 ], [ 110.41848, -7.680293 ], [ 110.41948, -7.682424 ], [ 110.419538, -7.682752 ], [ 110.419508, -7.68307 ], [ 110.419152, -7.68427 ], [ 110.418829, -7.686953 ], [ 110.41861, -7.694379 ], [ 110.418559, -7.694654 ], [ 110.417294, -7.697071 ], [ 110.415297, -7.700449 ], [ 110.418943, -7.701826 ], [ 110.419976, -7.702039 ], [ 110.422156, -7.702949 ], [ 110.42249, -7.703126 ], [ 110.424331, -7.70359 ], [ 110.426385, -7.704132 ], [ 110.428906, -7.704774 ], [ 110.429679, -7.704844 ], [ 110.431356, -7.704811 ], [ 110.433375, -7.704805 ], [ 110.438278, -7.704833 ], [ 110.438544, -7.704866 ], [ 110.439149, -7.70501 ], [ 110.439405, -7.705019 ], [ 110.439636, -7.70498 ], [ 110.44047, -7.704739 ], [ 110.440648, -7.704676 ], [ 110.442851, -7.70365 ], [ 110.445067, -7.702732 ], [ 110.445247, -7.702682 ], [ 110.446041, -7.702601 ], [ 110.446204, -7.702562 ], [ 110.446801, -7.702347 ], [ 110.446903, -7.702269 ], [ 110.447002, -7.702175 ], [ 110.447068, -7.70213 ], [ 110.447671, -7.701985 ], [ 110.447741, -7.702006 ], [ 110.447795, -7.702085 ], [ 110.448177, -7.703848 ], [ 110.448655, -7.706501 ], [ 110.449149, -7.709352 ], [ 110.44914, -7.709528 ], [ 110.44871, -7.711823 ], [ 110.448637, -7.71207 ], [ 110.448454, -7.71227 ], [ 110.44831, -7.712498 ], [ 110.447983, -7.713593 ], [ 110.447916, -7.713682 ], [ 110.447793, -7.713734 ], [ 110.442769, -7.713224 ], [ 110.442625, -7.713246 ], [ 110.442505, -7.713342 ], [ 110.442236, -7.714024 ], [ 110.441892, -7.7146 ], [ 110.44166, -7.715013 ], [ 110.441583, -7.715335 ], [ 110.441606, -7.715712 ], [ 110.44155, -7.715875 ], [ 110.441372, -7.716079 ], [ 110.440942, -7.717518 ], [ 110.44084, -7.71762 ], [ 110.438268, -7.718752 ], [ 110.43821, -7.718822 ], [ 110.438201, -7.718924 ], [ 110.43837, -7.722189 ], [ 110.438271, -7.722342 ], [ 110.435743, -7.722795 ], [ 110.435652, -7.722878 ], [ 110.435365, -7.72351 ], [ 110.435073, -7.724216 ], [ 110.435052, -7.724456 ], [ 110.435162, -7.725204 ], [ 110.435083, -7.726898 ], [ 110.435025, -7.728408 ], [ 110.434669, -7.73507 ], [ 110.434431, -7.739784 ], [ 110.434145, -7.744896 ], [ 110.434151, -7.745717 ], [ 110.434621, -7.749997 ], [ 110.434601, -7.750319 ], [ 110.434479, -7.751236 ], [ 110.434296, -7.752691 ], [ 110.433142, -7.76025 ], [ 110.432757, -7.761546 ], [ 110.431493, -7.76545 ], [ 110.431367, -7.766026 ], [ 110.431322, -7.766333 ], [ 110.431296, -7.76683 ], [ 110.431446, -7.767252 ], [ 110.43149, -7.767657 ], [ 110.431463, -7.768077 ], [ 110.431061, -7.770655 ], [ 110.429868, -7.783126 ], [ 110.429897, -7.783287 ], [ 110.429989, -7.783397 ], [ 110.430129, -7.783462 ], [ 110.437793, -7.78347 ], [ 110.438022, -7.783626 ], [ 110.437904, -7.784689 ], [ 110.437424, -7.784651 ], [ 110.437135, -7.784593 ], [ 110.435756, -7.784473 ] ] ] } },
{ "type": "Feature", "properties": { "Name": "Bus Ekspres", "descriptio": "Exit Tol Purwomartani > Terminal Maguwoharjo > Terminal Condongcatur > Terminal Jombor" }, "geometry": { "type": "MultiLineString", "coordinates": [ [ [ 110.442612734263108, -7.783383049956454 ], [ 110.442609386000072, -7.78343309999992 ], [ 110.442604869726011, -7.783456577298819 ], [ 110.439612199937272, -7.783454161817327 ], [ 110.438182, -7.783453 ], [ 110.438163212702619, -7.783469216413983 ], [ 110.438088935819778, -7.783533329109773 ], [ 110.438048627673368, -7.783533341997008 ], [ 110.43804541636095, -7.783559085551275 ], [ 110.438053195684418, -7.78356417848625 ], [ 110.438043765711512, -7.78357231803956 ], [ 110.438043617803245, -7.78357350375122 ], [ 110.438041571953278, -7.783589904380295 ], [ 110.438040729111904, -7.783596661047593 ], [ 110.438039668760297, -7.783605161385599 ], [ 110.438026071266833, -7.783714166028272 ], [ 110.437996080812141, -7.783993529610275 ], [ 110.437966432818143, -7.784334450498775 ], [ 110.437924, -7.784716 ], [ 110.437897201276286, -7.784713727145236 ], [ 110.437711138149211, -7.784697946702458 ], [ 110.437488630894748, -7.784690627493315 ], [ 110.437476727314177, -7.784678065661938 ], [ 110.437428531009346, -7.784673977981947 ], [ 110.437417, -7.784673 ], [ 110.43735887744522, -7.784661335282706 ], [ 110.437219484779007, -7.784633360289735 ], [ 110.437078995738375, -7.784615264143187 ], [ 110.437064454952889, -7.784612098467482 ], [ 110.437056396482305, -7.784608814740446 ], [ 110.435762, -7.784497 ], [ 110.435591, -7.784494 ], [ 110.435475, -7.784556 ], [ 110.435361, -7.784564 ], [ 110.435329, -7.784433 ], [ 110.43538, -7.784343 ], [ 110.435577754863189, -7.784237731276217 ], [ 110.435643, -7.784203 ], [ 110.43640867530388, -7.784263188403105 ], [ 110.436437424527782, -7.784268513483317 ], [ 110.436468269063397, -7.784243544104859 ], [ 110.436470824984696, -7.784241475026099 ], [ 110.436511411762652, -7.784208619063999 ], [ 110.436562277825345, -7.784167441763128 ], [ 110.436569, -7.784162 ], [ 110.436618, -7.783825 ], [ 110.436457, -7.783691 ], [ 110.436034, -7.783682 ], [ 110.435819, -7.783638 ], [ 110.43562227354586, -7.783635975285679 ], [ 110.435306498426826, -7.783632725128409 ], [ 110.435256295886887, -7.783632208390459 ], [ 110.435218983896164, -7.783631824331925 ], [ 110.435183273980869, -7.783631456760709 ], [ 110.435133071430556, -7.78363094000811 ], [ 110.434300729405777, -7.783622371551432 ], [ 110.434302706966236, -7.783604375755424 ], [ 110.434304515627588, -7.78358791693938 ], [ 110.434305776611609, -7.783576441985124 ], [ 110.434104820611083, -7.78357822015349 ], [ 110.434079051965853, -7.78357759167884 ], [ 110.434076730291011, -7.78358596673963 ], [ 110.433982860905587, -7.78358516303487 ], [ 110.433924920378772, -7.783584666940743 ], [ 110.433870213403878, -7.783584198525483 ], [ 110.433776340487853, -7.783583394744832 ], [ 110.433713322872705, -7.783582855148997 ], [ 110.43324173892934, -7.783578816858296 ], [ 110.433244202232743, -7.783560359093287 ], [ 110.43318966752976, -7.783559966997282 ], [ 110.433191858907691, -7.783540800000392 ], [ 110.432100445582137, -7.783534133557088 ], [ 110.432019700425968, -7.783533317507786 ], [ 110.43196579657328, -7.783533310915214 ], [ 110.431404626920454, -7.783529881973424 ], [ 110.429960713073044, -7.783521055745924 ], [ 110.429911280733265, -7.783520753493359 ], [ 110.429819215394929, -7.78328438332928 ], [ 110.430734136772301, -7.773885050562268 ], [ 110.430846641000102, -7.772748066999973 ], [ 110.430975406000101, -7.771087492999889 ], [ 110.431091979000044, -7.770192488999968 ], [ 110.431288309490185, -7.769289283566225 ], [ 110.431369, -7.768045 ], [ 110.431151, -7.766861 ], [ 110.430291, -7.765959 ], [ 110.429292, -7.765546 ], [ 110.427433605000047, -7.765235327999989 ], [ 110.412715895179289, -7.761872916530102 ], [ 110.410772444000145, -7.761439216999956 ], [ 110.401203418924737, -7.75837474669625 ], [ 110.40001297400002, -7.758131568999944 ], [ 110.398331958000114, -7.758118901999933 ], [ 110.39572204100007, -7.758481641999945 ], [ 110.392947574000104, -7.759088204999956 ], [ 110.391466050000091, -7.759466753999928 ], [ 110.390354611000063, -7.75974465899998 ], [ 110.389414610000102, -7.759749171999935 ], [ 110.388545928000084, -7.759577304999909 ], [ 110.388058828000098, -7.759432696999952 ], [ 110.383625203000079, -7.755167522999913 ], [ 110.382119659000125, -7.753803058999883 ], [ 110.380477603000131, -7.752863287999931 ], [ 110.378375570000031, -7.752077539999949 ], [ 110.377543803000037, -7.751940827999925 ], [ 110.376714645000106, -7.752009336 ], [ 110.375527699000116, -7.752045106999935 ], [ 110.374007714000115, -7.751734697999922 ], [ 110.372816418000056, -7.751493818999979 ], [ 110.371203137000052, -7.751210733999911 ], [ 110.369477700000019, -7.750823203999987 ], [ 110.367675428000027, -7.75064294 ], [ 110.366785093, -7.750537661999907 ], [ 110.366097009000086, -7.750466094999928 ], [ 110.364450299000097, -7.750130708999972 ], [ 110.363797426000076, -7.749886058999905 ], [ 110.362392070000041, -7.749351453 ], [ 110.362736399000127, -7.740862117999947 ], [ 110.360523150000034, -7.740551849999952 ], [ 110.359509448000011, -7.740416496999923 ], [ 110.358851485000116, -7.740323320999955 ], [ 110.358919232000019, -7.739874648999969 ], [ 110.359161348000072, -7.739573095999968 ] ] ] } },
{ "type": "Feature", "properties": { "Name": "Bus Ekspres", "descriptio": "Exit Tol Purwomartani > Terminal Maguwoharjo > Terminal Condongcatur > Terminal Jombor" }, "geometry": { "type": "MultiLineString", "coordinates": [ [ [ 110.443824674979041, -7.771284208459668 ], [ 110.443846480801938, -7.771752416740237 ], [ 110.443787565000051, -7.772611016999955 ], [ 110.443688918000078, -7.773211889999958 ], [ 110.44364930600004, -7.773458383999942 ], [ 110.443644518902019, -7.773509671028299 ], [ 110.443612538000124, -7.773852300999908 ], [ 110.44358617729921, -7.774083968352722 ], [ 110.443451024000098, -7.77527173899996 ], [ 110.443359728000075, -7.776053390999979 ], [ 110.443353045000052, -7.776300243999977 ], [ 110.443357139000057, -7.776331844999926 ], [ 110.443282258000053, -7.776790032999878 ], [ 110.443224333000117, -7.77734739599992 ], [ 110.443212398000071, -7.777567830999961 ], [ 110.443079813000097, -7.77870365699997 ] ] ] } },
{ "type": "Feature", "properties": { "Name": "Bus Ekspres", "descriptio": "Exit Tol Purwomartani > Terminal Maguwoharjo > Terminal Condongcatur > Terminal Jombor" }, "geometry": { "type": "MultiLineString", "coordinates": [ [ [ 110.455016234000084, -7.770138162999936 ], [ 110.454371768839096, -7.770400424836682 ], [ 110.443824674979041, -7.771284208459668 ] ] ] } },
{ "type": "Feature", "properties": { "Name": "Bus Ekspres", "descriptio": "Exit Tol Purwomartani > Terminal Maguwoharjo > Terminal Condongcatur > Terminal Jombor" }, "geometry": { "type": "MultiLineString", "coordinates": [ [ [ 110.442715911000093, -7.782377886999956 ], [ 110.442686739000095, -7.782656152999937 ], [ 110.442617685000045, -7.783309045999904 ], [ 110.442612734263108, -7.783383049956454 ] ] ] } },
{ "type": "Feature", "properties": { "Name": "Bus Ekspres", "descriptio": "Exit Tol Purwomartani > Terminal Maguwoharjo > Terminal Condongcatur > Terminal Jombor" }, "geometry": { "type": "MultiLineString", "coordinates": [ [ [ 110.443079813000097, -7.77870365699997 ], [ 110.443057603061021, -7.778893926878331 ], [ 110.443054065000112, -7.778924236999925 ], [ 110.443015722000027, -7.779355924999916 ], [ 110.442955069000107, -7.780130985999941 ], [ 110.44287327300006, -7.780756418999918 ], [ 110.442842751000015, -7.781040498999969 ], [ 110.442745966000089, -7.782055581999915 ], [ 110.442715911000093, -7.782377886999956 ] ] ] } }
]
}
